start=new Date('2022-04-18T00:00:00.000Z').valueOf();
sats=[{"BSTAR":"0.00110910000000","MEAN_MOTION":"15.06376935","SEMIMAJOR_AXIS":"6925.419","REV_AT_EPOCH":"12211","NORAD_CAT_ID":"45048","APOAPSIS":"548.423","LAUNCH_DATE":"2020-01-29","TIME_SYSTEM":"UTC","REF_FRAME":"TEME","MEAN_MOTION_DOT":"0.00016267","COUNTRY_CODE":"US","PERIOD":"95.594","CENTER_NAME":"EARTH","TLE_LINE2":"2 45048  53.0534 190.7461 0001645  64.7818 295.3342 15.06376935122111","GP_ID":"201493614","DECAY_DATE":null,"FILE":"3405839","MEAN_ELEMENT_THEORY":"SGP4","INCLINATION":"53.0534","ELEMENT_SET_NO":"999","OBJECT_ID":"2020-006E","MEAN_MOTION_DDOT":"0.0000000000000","ECCENTRICITY":"0.00016450","MEAN_ANOMALY":"295.3342","PERIAPSIS":"546.145","TLE_LINE1":"1 45048U 20006E   22107.57190694  .00016267  00000-0  11091-2 0  9998","EPOCH":"2022-04-17T13:43:32.759616","EPHEMERIS_TYPE":"0","OBJECT_TYPE":"PAYLOAD","RA_OF_ASC_NODE":"190.7461","ARG_OF_PERICENTER":"64.7818","OBJECT_NAME":"STARLINK-1134","RCS_SIZE":"LARGE","SITE":"AFETR","CLASSIFICATION_TYPE":"U"},{"COUNTRY_CODE":"US","PERIOD":"95.470","REF_FRAME":"TEME","MEAN_MOTION_DOT":"0.00004575","TLE_LINE2":"2 45049  53.0540 189.9035 0001305 140.7817 219.3267 15.08331764122130","CENTER_NAME":"EARTH","MEAN_MOTION":"15.08331764","BSTAR":"0.00030953000000","NORAD_CAT_ID":"45049","APOAPSIS":"542.202","TIME_SYSTEM":"UTC","LAUNCH_DATE":"2020-01-29","REV_AT_EPOCH":"12213","SEMIMAJOR_AXIS":"6919.434","EPHEMERIS_TYPE":"0","ARG_OF_PERICENTER":"140.7817","RA_OF_ASC_NODE":"189.9035","OBJECT_TYPE":"PAYLOAD","EPOCH":"2022-04-17T16:00:09.500832","TLE_LINE1":"1 45049U 20006F   22107.66677663  .00004575  00000-0  30953-3 0  9993","SITE":"AFETR","CLASSIFICATION_TYPE":"U","OBJECT_NAME":"STARLINK-1135","RCS_SIZE":"LARGE","ELEMENT_SET_NO":"999","DECAY_DATE":null,"FILE":"3405839","GP_ID":"201492856","INCLINATION":"53.0540","MEAN_ELEMENT_THEORY":"SGP4","MEAN_ANOMALY":"219.3267","PERIAPSIS":"540.396","OBJECT_ID":"2020-006F","ECCENTRICITY":"0.00013050","MEAN_MOTION_DDOT":"0.0000000000000"},{"COUNTRY_CODE":"US","PERIOD":"95.592","REF_FRAME":"TEME","MEAN_MOTION_DOT":"0.00003851","TLE_LINE2":"2 45050  53.0530 190.1024 0001617  53.4107 306.7031 15.06396605122134","CENTER_NAME":"EARTH","MEAN_MOTION":"15.06396605","BSTAR":"0.00027729000000","NORAD_CAT_ID":"45050","APOAPSIS":"548.344","LAUNCH_DATE":"2020-01-29","TIME_SYSTEM":"UTC","SEMIMAJOR_AXIS":"6925.359","REV_AT_EPOCH":"12213","EPHEMERIS_TYPE":"0","ARG_OF_PERICENTER":"53.4107","RA_OF_ASC_NODE":"190.1024","OBJECT_TYPE":"PAYLOAD","TLE_LINE1":"1 45050U 20006G   22107.71565153  .00003851  00000-0  27729-3 0  9994","EPOCH":"2022-04-17T17:10:32.292192","SITE":"AFETR","CLASSIFICATION_TYPE":"U","OBJECT_NAME":"STARLINK-1140","RCS_SIZE":"LARGE","ELEMENT_SET_NO":"999","DECAY_DATE":null,"FILE":"3405839","GP_ID":"201493106","INCLINATION":"53.0530","MEAN_ELEMENT_THEORY":"SGP4","MEAN_ANOMALY":"306.7031","PERIAPSIS":"546.104","OBJECT_ID":"2020-006G","ECCENTRICITY":"0.00016170","MEAN_MOTION_DDOT":"0.0000000000000"},{"MEAN_MOTION_DDOT":"0.0000000000000","ECCENTRICITY":"0.00012560","OBJECT_ID":"2020-006H","PERIAPSIS":"534.527","MEAN_ANOMALY":"338.5492","MEAN_ELEMENT_THEORY":"SGP4","INCLINATION":"53.0509","GP_ID":"201493366","FILE":"3405839","DECAY_DATE":null,"ELEMENT_SET_NO":"999","RCS_SIZE":"LARGE","OBJECT_NAME":"STARLINK-1141","CLASSIFICATION_TYPE":"U","SITE":"AFETR","TLE_LINE1":"1 45051U 20006H   22107.66444312  .00013966  00000-0  85969-3 0  9990","EPOCH":"2022-04-17T15:56:47.885568","OBJECT_TYPE":"PAYLOAD","RA_OF_ASC_NODE":"188.4214","ARG_OF_PERICENTER":"21.5552","EPHEMERIS_TYPE":"0","SEMIMAJOR_AXIS":"6913.530","REV_AT_EPOCH":"12215","TIME_SYSTEM":"UTC","LAUNCH_DATE":"2020-01-29","NORAD_CAT_ID":"45051","APOAPSIS":"536.263","BSTAR":"0.00085969000000","MEAN_MOTION":"15.10264364","CENTER_NAME":"EARTH","TLE_LINE2":"2 45051  53.0509 188.4214 0001256  21.5552 338.5492 15.10264364122158","MEAN_MOTION_DOT":"0.00013966","REF_FRAME":"TEME","PERIOD":"95.348","COUNTRY_CODE":"US"},{"ELEMENT_SET_NO":"999","GP_ID":"201494106","DECAY_DATE":null,"FILE":"3405839","MEAN_ELEMENT_THEORY":"SGP4","INCLINATION":"53.0533","MEAN_ANOMALY":"294.7609","PERIAPSIS":"546.338","OBJECT_ID":"2020-006J","MEAN_MOTION_DDOT":"0.0000000000000","ECCENTRICITY":"0.00014310","EPHEMERIS_TYPE":"0","OBJECT_TYPE":"PAYLOAD","RA_OF_ASC_NODE":"190.6666","ARG_OF_PERICENTER":"65.3529","EPOCH":"2022-04-17T14:10:03.978912","TLE_LINE1":"1 45052U 20006J   22107.59032383 -.00009372  00000-0 -61170-3 0  9990","SITE":"AFETR","CLASSIFICATION_TYPE":"U","OBJECT_NAME":"STARLINK-1148","RCS_SIZE":"LARGE","MEAN_MOTION":"15.06362408","BSTAR":"-0.00061170000000","APOAPSIS":"548.320","NORAD_CAT_ID":"45052","TIME_SYSTEM":"UTC","LAUNCH_DATE":"2020-01-29","SEMIMAJOR_AXIS":"6925.464","REV_AT_EPOCH":"12211","COUNTRY_CODE":"US","PERIOD":"95.595","REF_FRAME":"TEME","MEAN_MOTION_DOT":"-0.00009372","TLE_LINE2":"2 45052  53.0533 190.6666 0001431  65.3529 294.7609 15.06362408122119","CENTER_NAME":"EARTH"},{"NORAD_CAT_ID":"45053","APOAPSIS":"534.306","TIME_SYSTEM":"UTC","LAUNCH_DATE":"2020-01-29","REV_AT_EPOCH":"12214","SEMIMAJOR_AXIS":"6911.355","MEAN_MOTION":"15.10977398","BSTAR":"0.00120410000000","TLE_LINE2":"2 45053  53.0005 185.7930 0001572  48.9586 311.1540 15.10977398122145","CENTER_NAME":"EARTH","COUNTRY_CODE":"US","PERIOD":"95.303","REF_FRAME":"TEME","MEAN_MOTION_DOT":"0.00020091","MEAN_ANOMALY":"311.1540","PERIAPSIS":"532.133","OBJECT_ID":"2020-006K","ECCENTRICITY":"0.00015720","MEAN_MOTION_DDOT":"0.0000000000000","ELEMENT_SET_NO":"999","DECAY_DATE":null,"FILE":"3405596","GP_ID":"201463644","INCLINATION":"53.0005","MEAN_ELEMENT_THEORY":"SGP4","SITE":"AFETR","CLASSIFICATION_TYPE":"U","OBJECT_NAME":"STARLINK-1155","RCS_SIZE":"LARGE","EPHEMERIS_TYPE":"0","RA_OF_ASC_NODE":"185.7930","ARG_OF_PERICENTER":"48.9586","OBJECT_TYPE":"PAYLOAD","TLE_LINE1":"1 45053U 20006K   22107.48382959  .00020091  00000-0  12041-2 0  9997","EPOCH":"2022-04-17T11:36:42.876576"},{"REF_FRAME":"TEME","MEAN_MOTION_DOT":"0.00001035","COUNTRY_CODE":"US","PERIOD":"95.593","CENTER_NAME":"EARTH","TLE_LINE2":"2 45054  53.0534 190.6990 0001747  61.3742 298.7423 15.06394090122115","BSTAR":"0.00008837600000","MEAN_MOTION":"15.06394090","REV_AT_EPOCH":"12211","SEMIMAJOR_AXIS":"6925.367","APOAPSIS":"548.442","NORAD_CAT_ID":"45054","TIME_SYSTEM":"UTC","LAUNCH_DATE":"2020-01-29","TLE_LINE1":"1 45054U 20006L   22107.58663431  .00001035  00000-0  88376-4 0  9999","EPOCH":"2022-04-17T14:04:45.204384","EPHEMERIS_TYPE":"0","OBJECT_TYPE":"PAYLOAD","ARG_OF_PERICENTER":"61.3742","RA_OF_ASC_NODE":"190.6990","OBJECT_NAME":"STARLINK-1156","RCS_SIZE":"LARGE","SITE":"AFETR","CLASSIFICATION_TYPE":"U","GP_ID":"201492615","DECAY_DATE":null,"FILE":"3405839","MEAN_ELEMENT_THEORY":"SGP4","INCLINATION":"53.0534","ELEMENT_SET_NO":"999","OBJECT_ID":"2020-006L","MEAN_MOTION_DDOT":"0.0000000000000","ECCENTRICITY":"0.00017470","MEAN_ANOMALY":"298.7423","PERIAPSIS":"546.022"},{"CLASSIFICATION_TYPE":"U","SITE":"AFETR","RCS_SIZE":"LARGE","OBJECT_NAME":"STARLINK-1159","OBJECT_TYPE":"PAYLOAD","RA_OF_ASC_NODE":"190.0112","ARG_OF_PERICENTER":"59.3726","EPHEMERIS_TYPE":"0","TLE_LINE1":"1 45057U 20006P   22107.73408362 -.00000186  00000-0  64122-5 0  9990","EPOCH":"2022-04-17T17:37:04.824768","PERIAPSIS":"546.146","MEAN_ANOMALY":"300.7419","MEAN_MOTION_DDOT":"0.0000000000000","ECCENTRICITY":"0.00015850","OBJECT_ID":"2020-006P","ELEMENT_SET_NO":"999","MEAN_ELEMENT_THEORY":"SGP4","INCLINATION":"53.0533","GP_ID":"201493858","DECAY_DATE":null,"FILE":"3405839","TLE_LINE2":"2 45057  53.0533 190.0112 0001585  59.3726 300.7419 15.06390164122146","CENTER_NAME":"EARTH","PERIOD":"95.593","COUNTRY_CODE":"US","MEAN_MOTION_DOT":"-0.00000186","REF_FRAME":"TEME","TIME_SYSTEM":"UTC","LAUNCH_DATE":"2020-01-29","APOAPSIS":"548.341","NORAD_CAT_ID":"45057","REV_AT_EPOCH":"12214","SEMIMAJOR_AXIS":"6925.379","MEAN_MOTION":"15.06390164","BSTAR":"0.00000641220000"},{"OBJECT_TYPE":"PAYLOAD","ARG_OF_PERICENTER":"53.8806","RA_OF_ASC_NODE":"190.0517","EPHEMERIS_TYPE":"0","TLE_LINE1":"1 45058U 20006Q   22107.72670554  .00000704  00000-0  66182-4 0  9996","EPOCH":"2022-04-17T17:26:27.358656","CLASSIFICATION_TYPE":"U","SITE":"AFETR","RCS_SIZE":"LARGE","OBJECT_NAME":"STARLINK-1162","ELEMENT_SET_NO":"999","MEAN_ELEMENT_THEORY":"SGP4","INCLINATION":"53.0523","GP_ID":"201493615","FILE":"3405839","DECAY_DATE":null,"PERIAPSIS":"546.028","MEAN_ANOMALY":"306.2349","MEAN_MOTION_DDOT":"0.0000000000000","ECCENTRICITY":"0.00018000","OBJECT_ID":"2020-006Q","PERIOD":"95.593","COUNTRY_CODE":"US","MEAN_MOTION_DOT":"0.00000704","REF_FRAME":"TEME","TLE_LINE2":"2 45058  53.0523 190.0517 0001800  53.8806 306.2349 15.06379945122140","CENTER_NAME":"EARTH","MEAN_MOTION":"15.06379945","BSTAR":"0.00006618200000","LAUNCH_DATE":"2020-01-29","TIME_SYSTEM":"UTC","APOAPSIS":"548.522","NORAD_CAT_ID":"45058","REV_AT_EPOCH":"12214","SEMIMAJOR_AXIS":"6925.410"},{"MEAN_MOTION":"15.06395841","BSTAR":"0.00001799500000","APOAPSIS":"548.318","NORAD_CAT_ID":"45059","TIME_SYSTEM":"UTC","LAUNCH_DATE":"2020-01-29","REV_AT_EPOCH":"12214","SEMIMAJOR_AXIS":"6925.361","COUNTRY_CODE":"US","PERIOD":"95.592","REF_FRAME":"TEME","MEAN_MOTION_DOT":"-0.00000014","TLE_LINE2":"2 45059  53.0539 189.9665 0001576  59.3244 300.7900 15.06395841122141","CENTER_NAME":"EARTH","ELEMENT_SET_NO":"999","FILE":"3405839","DECAY_DATE":null,"GP_ID":"201492857","INCLINATION":"53.0539","MEAN_ELEMENT_THEORY":"SGP4","MEAN_ANOMALY":"300.7900","PERIAPSIS":"546.135","OBJECT_ID":"2020-006R","ECCENTRICITY":"0.00015760","MEAN_MOTION_DDOT":"0.0000000000000","EPHEMERIS_TYPE":"0","ARG_OF_PERICENTER":"59.3244","RA_OF_ASC_NODE":"189.9665","OBJECT_TYPE":"PAYLOAD","TLE_LINE1":"1 45059U 20006R   22107.74882413 -.00000014  00000-0  17995-4 0  9991","EPOCH":"2022-04-17T17:58:18.404832","SITE":"AFETR","CLASSIFICATION_TYPE":"U","OBJECT_NAME":"STARLINK-1165","RCS_SIZE":"LARGE"}];
